GLOBALSTAR M024         
1 25883U 99043A   24187.90814179 -.00000026  00000+0  13742-2 0  9999
2 25883  52.0019  81.9425 0000936 279.6718 163.4986 11.10156678 76402
GLOBALSTAR M027         
1 25884U 99043B   24187.92355599 -.00000126  00000+0 -23533-2 0  9999
2 25884  52.0182 150.0794 0020900 152.0461 208.1459 11.04369043102983
GLOBALSTAR M054         
1 25885U 99043C   24187.92135177  .00000023  00000+0  24056-2 0  9993
2 25885  52.0165 335.4949 0004254 312.8761 223.1928 11.39206211 79581
GLOBALSTAR M053         
1 25886U 99043D   24187.95274317 -.00000028  00000+0  11753-2 0  9993
2 25886  51.9973 263.3073 0003907 210.4874 320.7105 11.27656584 80386
GLOBALSTAR M050         
1 25908U 99049B   24187.96686994 -.00000054  00000+0  38142-3 0  9994
2 25908  52.0007 347.2021 0009767  65.3957 115.0368 12.07435668106365
GLOBALSTAR M055         
1 25910U 99049D   24187.91376593 -.00000028  00000+0  57117-3 0  9997
2 25910  52.0015 270.7005 0007593 133.2525 226.8961 12.29403959125699
